{
  "type": "FeatureCollection",
  "features": [
    {
      "type": "Feature",
      "properties": {
        "norad_id": 41330,
        "name": "COSMOS 2514 (751)",
        "group": "glo-ops",
        "lat": 48.066574305008885,
        "lon": -9.941576520395895,
        "alt_km": 19153.03041489457,
        "timestamp": "2025-12-24T07:45:06.460892+00:00",
        "meta_object_name": "COSMOS 2514 (751)",
        "meta_object_id": "2016-008A",
        "meta_epoch": "2025-12-23T07:30:02.526336",
        "meta_mean_motion": 2.13102643,
        "meta_eccentricity": 0.00116567,
        "meta_inclination": 65.1277,
        "meta_ra_of_asc_node": 319.0421,
        "meta_arg_of_pericenter": 220.1052,
        "meta_mean_anomaly": 139.8073,
        "meta_ephemeris_type": 0,
        "meta_classification_type": "U",
        "meta_norad_cat_id": 41330,
        "meta_element_set_no": 999,
        "meta_rev_at_epoch": 7687,
        "meta_bstar": 0,
        "meta_mean_motion_dot": -3.6e-07,
        "meta_mean_motion_ddot": 0,
        "tle_line1": "1 41330U 16008A   25357.31252924 -.00000036  00000+0  00000+0 0  9994",
        "tle_line2": "2 41330  65.1277 319.0421 0011656 220.1052 139.8073  2.13102643 76873"
      },
      "geometry": {
        "type": "Point",
        "coordinates": [
          -9.941576520395895,
          48.066574305008885
        ]
      }
    },
    {
      "type": "Feature",
      "properties": {
        "norad_id": 42939,
        "name": "COSMOS 2522 (752)",
        "group": "glo-ops",
        "lat": 0.7303272651135796,
        "lon": 17.483477465056893,
        "alt_km": 19118.858291973287,
        "timestamp": "2025-12-24T07:45:06.460904+00:00",
        "meta_object_name": "COSMOS 2522 (752)",
        "meta_object_id": "2017-055A",
        "meta_epoch": "2025-12-22T05:05:46.710816",
        "meta_mean_motion": 2.13102066,
        "meta_eccentricity": 0.00062992,
        "meta_inclination": 64.0765,
        "meta_ra_of_asc_node": 197.9063,
        "meta_arg_of_pericenter": 223.6863,
        "meta_mean_anomaly": 136.3303,
        "meta_ephemeris_type": 0,
        "meta_classification_type": "U",
        "meta_norad_cat_id": 42939,
        "meta_element_set_no": 999,
        "meta_rev_at_epoch": 6420,
        "meta_bstar": 0,
        "meta_mean_motion_dot": 9.5e-07,
        "meta_mean_motion_ddot": 0,
        "tle_line1": "1 42939U 17055A   25356.21234619  .00000095  00000+0  00000+0 0  9996",
        "tle_line2": "2 42939  64.0765 197.9063 0006299 223.6863 136.3303  2.13102066 64200"
      },
      "geometry": {
        "type": "Point",
        "coordinates": [
          17.483477465056893,
          0.7303272651135796
        ]
      }
    },
    {
      "type": "Feature",
      "properties": {
        "norad_id": 43508,
        "name": "COSMOS 2527 (756)",
        "group": "glo-ops",
        "lat": -26.339854606465618,
        "lon": -87.201481343287,
        "alt_km": 19111.772162958438,
        "timestamp": "2025-12-24T07:45:06.460915+00:00",
        "meta_object_name": "COSMOS 2527 (756)",
        "meta_object_id": "2018-053A",
        "meta_epoch": "2025-12-23T02:40:53.485824",
        "meta_mean_motion": 2.13102391,
        "meta_eccentricity": 0.00089977,
        "meta_inclination": 65.4775,
        "meta_ra_of_asc_node": 79.785,
        "meta_arg_of_pericenter": 227.5336,
        "meta_mean_anomaly": 132.4355,
        "meta_ephemeris_type": 0,
        "meta_classification_type": "U",
        "meta_norad_cat_id": 43508,
        "meta_element_set_no": 999,
        "meta_rev_at_epoch": 5852,
        "meta_bstar": 0,
        "meta_mean_motion_dot": 1e-08,
        "meta_mean_motion_ddot": 0,
        "tle_line1": "1 43508U 18053A   25357.11173016  .00000001  00000+0  00000+0 0  9998",
        "tle_line2": "2 43508  65.4775  79.7850 0008997 227.5336 132.4355  2.13102391 58528"
      },
      "geometry": {
        "type": "Point",
        "coordinates": [
          -87.201481343287,
          -26.339854606465618
        ]
      }
    },
    {
      "type": "Feature",
      "properties": {
        "norad_id": 43687,
        "name": "COSMOS 2529 (757)",
        "group": "glo-ops",
        "lat": 40.00535094530043,
        "lon": -5.358604943775526,
        "alt_km": 19133.83074411205,
        "timestamp": "2025-12-24T07:45:06.460927+00:00",
        "meta_object_name": "COSMOS 2529 (757)",
        "meta_object_id": "2018-086A",
        "meta_epoch": "2025-12-23T05:01:04.327104",
        "meta_mean_motion": 2.13102131,
        "meta_eccentricity": 0.0006897,
        "meta_inclination": 64.2927,
        "meta_ra_of_asc_node": 198.5346,
        "meta_arg_of_pericenter": 253.659,
        "meta_mean_anomaly": 106.3281,
        "meta_ephemeris_type": 0,
        "meta_classification_type": "U",
        "meta_norad_cat_id": 43687,
        "meta_element_set_no": 999,
        "meta_rev_at_epoch": 5553,
        "meta_bstar": 0,
        "meta_mean_motion_dot": 9.5e-07,
        "meta_mean_motion_ddot": 0,
        "tle_line1": "1 43687U 18086A   25357.20907786  .00000095  00000+0  00000+0 0  9994",
        "tle_line2": "2 43687  64.2927 198.5346 0006897 253.6590 106.3281  2.13102131 55539"
      },
      "geometry": {
        "type": "Point",
        "coordinates": [
          -5.358604943775526,
          40.00535094530043
        ]
      }
    },
    {
      "type": "Feature",
      "properties": {
        "norad_id": 44299,
        "name": "COSMOS 2534 (758)",
        "group": "glo-ops",
        "lat": -64.31911722137016,
        "lon": 106.00987690769242,
        "alt_km": 19115.137555373345,
        "timestamp": "2025-12-24T07:45:06.460938+00:00",
        "meta_object_name": "COSMOS 2534 (758)",
        "meta_object_id": "2019-030A",
        "meta_epoch": "2025-12-23T06:38:38.752224",
        "meta_mean_motion": 2.13102317,
        "meta_eccentricity": 0.00086492,
        "meta_inclination": 64.3662,
        "meta_ra_of_asc_node": 198.5378,
        "meta_arg_of_pericenter": 283.8843,
        "meta_mean_anomaly": 262.5113,
        "meta_ephemeris_type": 0,
        "meta_classification_type": "U",
        "meta_norad_cat_id": 44299,
        "meta_element_set_no": 999,
        "meta_rev_at_epoch": 5117,
        "meta_bstar": 0,
        "meta_mean_motion_dot": 9.5e-07,
        "meta_mean_motion_ddot": 0,
        "tle_line1": "1 44299U 19030A   25357.27683741  .00000095  00000+0  00000+0 0  9993",
        "tle_line2": "2 44299  64.3662 198.5378 0008649 283.8843 262.5113  2.13102317 51175"
      },
      "geometry": {
        "type": "Point",
        "coordinates": [
          106.00987690769242,
          -64.31911722137016
        ]
      }
    },
    {
      "type": "Feature",
      "properties": {
        "norad_id": 44850,
        "name": "COSMOS 2544 (759)",
        "group": "glo-ops",
        "lat": -59.72122739361081,
        "lon": -49.05788757257766,
        "alt_km": 19099.725312184077,
        "timestamp": "2025-12-24T07:45:06.460949+00:00",
        "meta_object_name": "COSMOS 2544 (759)",
        "meta_object_id": "2019-088A",
        "meta_epoch": "2025-12-23T01:21:04.162752",
        "meta_mean_motion": 2.13102153,
        "meta_eccentricity": 0.0014323,
        "meta_inclination": 65.465,
        "meta_ra_of_asc_node": 79.6136,
        "meta_arg_of_pericenter": 250.3939,
        "meta_mean_anomaly": 109.4967,
        "meta_ephemeris_type": 0,
        "meta_classification_type": "U",
        "meta_norad_cat_id": 44850,
        "meta_element_set_no": 999,
        "meta_rev_at_epoch": 4696,
        "meta_bstar": 0,
        "meta_mean_motion_dot": 1e-08,
        "meta_mean_motion_ddot": 0,
        "tle_line1": "1 44850U 19088A   25357.05629818  .00000001  00000+0  00000+0 0  9997",
        "tle_line2": "2 44850  65.4650  79.6136 0014323 250.3939 109.4967  2.13102153 46964"
      },
      "geometry": {
        "type": "Point",
        "coordinates": [
          -49.05788757257766,
          -59.72122739361081
        ]
      }
    },
    {
      "type": "Feature",
      "properties": {
        "norad_id": 45358,
        "name": "COSMOS 2545 (760)",
        "group": "glo-ops",
        "lat": 62.16728557476982,
        "lon": 73.75016495093116,
        "alt_km": 19147.87688707453,
        "timestamp": "2025-12-24T07:45:06.460960+00:00",
        "meta_object_name": "COSMOS 2545 (760)",
        "meta_object_id": "2020-018A",
        "meta_epoch": "2025-12-23T06:02:53.477376",
        "meta_mean_motion": 2.13102687,
        "meta_eccentricity": 0.00113235,
        "meta_inclination": 64.4634,
        "meta_ra_of_asc_node": 318.6014,
        "meta_arg_of_pericenter": 250.5824,
        "meta_mean_anomaly": 109.2939,
        "meta_ephemeris_type": 0,
        "meta_classification_type": "U",
        "meta_norad_cat_id": 45358,
        "meta_element_set_no": 999,
        "meta_rev_at_epoch": 4491,
        "meta_bstar": 0,
        "meta_mean_motion_dot": -3.7e-07,
        "meta_mean_motion_ddot": 0,
        "tle_line1": "1 45358U 20018A   25357.25200784 -.00000037  00000+0  00000+0 0  9995",
        "tle_line2": "2 45358  64.4634 318.6014 0011323 250.5824 109.2939  2.13102687 44914"
      },
      "geometry": {
        "type": "Point",
        "coordinates": [
          73.75016495093116,
          62.16728557476982
        ]
      }
    }
  ]
}